{
    "links": {
        "self": "http://www.neowsapp.com/rest/v1/neo/3627427?api_key=iIulBulltgU6a56xZRHN4H3l9WmuAYTsLGpBGhQ2"
    },
    "id": "3627427",
    "neo_reference_id": "3627427",
    "name": "(2013 DS9)",
    "designation": "2013 DS9",
    "nasa_jpl_url": "http://ssd.jpl.nasa.gov/sbdb.cgi?sstr=3627427",
    "absolute_magnitude_h": 26.3,
    "estimated_diameter": {
        "kilometers": {
            "estimated_diameter_min": 0.0146067964,
            "estimated_diameter_max": 0.0326617897
        },
        "meters": {
            "estimated_diameter_min": 14.6067964271,
            "estimated_diameter_max": 32.6617897446
        },
        "miles": {
            "estimated_diameter_min": 0.0090762397,
            "estimated_diameter_max": 0.020295089
        },
        "feet": {
            "estimated_diameter_min": 47.92256199,
            "estimated_diameter_max": 107.1581062656
        }
    },
    "is_potentially_hazardous_asteroid": false,
    "close_approach_data": [
        {
            "close_approach_date": "2013-02-24",
            "close_approach_date_full": "2013-Feb-24 21:45",
            "epoch_date_close_approach": 1361742300000,
            "relative_velocity": {
                "kilometers_per_second": "7.000955338",
                "kilometers_per_hour": "25203.4392169349",
                "miles_per_hour": "15660.436995656"
            },
            "miss_distance": {
                "astronomical": "0.0222183742",
                "lunar": "8.6429475638",
                "kilometers": "3323821.455182954",
                "miles": "2065326.8817706052"
            },
            "orbiting_body": "Earth"
        }
    ],
    "orbital_data": {
        "orbit_id": "4",
        "orbit_determination_date": "2017-04-06 08:46:39",
        "first_observation_date": "2013-02-19",
        "last_observation_date": "2013-02-21",
        "data_arc_in_days": 2,
        "observations_used": 27,
        "orbit_uncertainty": "8",
        "minimum_orbit_intersection": ".017626",
        "jupiter_tisserand_invariant": "3.602",
        "epoch_osculation": "2456343.5",
        "eccentricity": ".5136469731391567",
        "semi_major_axis": "2.063373011596824",
        "inclination": "1.886521216542097",
        "ascending_node_longitude": "141.481844358853",
        "orbital_period": "1082.592578485502",
        "perihelion_distance": "1.003527709733089",
        "perihelion_argument": "25.48933708884951",
        "aphelion_distance": "3.123218313460559",
        "perihelion_time": "2456356.963908347054",
        "mean_anomaly": "355.5227782812624",
        "mean_motion": ".332535071045493",
        "equinox": "J2000",
        "orbit_class": {
            "orbit_class_type": "APO",
            "orbit_class_description": "Near-Earth asteroid orbits which cross the Earth’s orbit similar to that of 1862 Apollo",
            "orbit_class_range": "a (semi-major axis) > 1.0 AU; q (perihelion) < 1.017 AU"
        }
    },
    "is_sentry_object": false
}